NORAD_CAT_ID,OBJECT_NAME,OBJECT_TYPE,EPOCH,MEAN_MOTION,ECCENTRICITY,INCLINATION,RA_OF_ASC_NODE,ARG_OF_PERICENTER,MEAN_ANOMALY,BSTAR,MEAN_MOTION_DOT,MEAN_MOTION_DDOT,TLE_LINE0,TLE_LINE1,TLE_LINE2,SEMIMAJOR_AXIS,PERIOD,APOGEE,PERIGEE,DECAYED
56497.0,STARLINK-5527,PAYLOAD,2023-10-14 09:24:32,15.69911998,0.0003775,69.999,164.8064,272.259,87.8173,-2.6502e-05,-3.397e-05,0.0,0 STARLINK-5527,1 56497U 23064BB  23287.39204028 -.00003397  00000-0 -26502-4 0  9999,2 56497  69.9990 164.8064 0003775 272.2590  87.8173 15.69911998 24966,6737.286,91.725,361.694,356.607,0.0
56497.0,STARLINK-5527,PAYLOAD,2023-10-14 18:35:03,15.69913654,0.0003684,70.0002,163.7334,274.2663,85.8112,9.5708e-06,9.38e-06,0.0,0 STARLINK-5527,1 56497U 23064BB  23287.77434427  .00000938  00000-0  95708-5 0  9990,2 56497  70.0002 163.7334 0003684 274.2663  85.8112 15.69913654 24673,6737.281,91.725,361.628,356.664,0.0
56497.0,STARLINK-5527,PAYLOAD,2023-10-15 00:42:03,15.69931589,0.0002785,70.0001,163.016,281.2274,78.8609,8.0326e-05,9.459e-05,0.0,0 STARLINK-5527,1 56497U 23064BB  23288.02921017  .00009459  00000-0  80326-4 0  9991,2 56497  70.0001 163.0160 0002785 281.2274  78.8609 15.69931589 25063,6737.23,91.724,360.971,357.218,0.0
56497.0,STARLINK-5527,PAYLOAD,2023-10-15 17:31:19,15.69931399,0.000263,69.9989,161.045,244.0346,116.0579,4.6264e-05,5.355e-05,0.0,0 STARLINK-5527,1 56497U 23064BB  23288.73009093  .00005355  00000-0  46264-4 0  9994,2 56497  69.9989 161.0450 0002630 244.0346 116.0579 15.69931399 25173,6737.23,91.724,360.867,357.323,0.0
56497.0,STARLINK-5527,PAYLOAD,2023-10-15 22:06:35,15.69939343,0.0003123,69.998,160.5076,276.5628,83.5212,8.5699e-05,0.0001011,0.0,0 STARLINK-5527,1 56497U 23064BB  23288.92124068  .00010110  00000-0  85699-4 0  9995,2 56497  69.9980 160.5076 0003123 276.5628  83.5212 15.69939343 24856,6737.208,91.723,361.177,356.969,0.0
56497.0,STARLINK-5527,PAYLOAD,2023-10-16 01:10:05,15.69915677,0.0003008,69.998,160.149,279.3516,80.7339,-4.9418e-05,-6.148e-05,0.0,0 STARLINK-5527,1 56497U 23064BB  23289.04867781 -.00006148  00000-0 -49418-4 0  9992,2 56497  69.9980 160.1490 0003008 279.3516  80.7339 15.69915677 25226,6737.275,91.725,361.167,357.114,0.0
56497.0,STARLINK-5527,PAYLOAD,2023-10-16 08:48:51,15.69917707,0.0003546,69.9976,159.2529,271.524,88.555,-3.7476e-06,-6.63e-06,0.0,0 STARLINK-5527,1 56497U 23064BB  23289.36726054 -.00000663  00000-0 -37476-5 0  9992,2 56497  69.9976 159.2529 0003546 271.5240  88.5550 15.69917707 24921,6737.269,91.725,361.523,356.745,0.0
56497.0,STARLINK-5527,PAYLOAD,2023-10-16 16:27:36,15.6993207,0.0003432,69.9968,158.3572,272.6855,87.3948,0.00011843,0.00014056,0.0,0 STARLINK-5527,1 56497U 23064BB  23289.68584226  .00014056  00000-0  11843-3 0  9997,2 56497  69.9968 158.3572 0003432 272.6855  87.3948 15.69932070 25321,6737.228,91.724,361.406,356.781,0.0
56497.0,STARLINK-5527,PAYLOAD,2023-10-18 00:34:24,15.69927318,0.0003835,69.9966,154.5958,272.8264,87.2493,2.2469e-05,2.49e-05,0.0,0 STARLINK-5527,1 56497U 23064BB  23291.02388996  .00002490  00000-0  22469-4 0  9990,2 56497  69.9966 154.5958 0003835 272.8264  87.2493 15.69927318 25534,6737.242,91.724,361.691,356.523,0.0
56497.0,STARLINK-5527,PAYLOAD,2023-10-19 14:48:12,15.69945487,0.0003307,69.998,150.1172,275.6292,84.4527,0.00012857,0.00015288,0.0,0 STARLINK-5527,1 56497U 23064BB  23292.61681093  .00015288  00000-0  12857-3 0  9998,2 56497  69.9980 150.1172 0003307 275.6292  84.4527 15.69945487 25439,6737.19,91.723,361.283,356.827,0.0
56497.0,STARLINK-5527,PAYLOAD,2023-10-19 20:55:12,15.69928199,0.0003336,69.9992,149.4022,279.0702,81.0116,0.00010219,0.00012094,0.0,0 STARLINK-5527,1 56497U 23064BB  23292.87167765  .00012094  00000-0  10219-3 0  9993,2 56497  69.9992 149.4022 0003336 279.0702  81.0116 15.69928199 25824,6737.239,91.724,361.352,356.857,0.0
56497.0,STARLINK-5527,PAYLOAD,2023-10-19 22:26:58,15.69929782,0.0003219,69.999,149.2231,279.8478,80.2354,3.9085e-05,4.49e-05,0.0,0 STARLINK-5527,1 56497U 23064BB  23292.93539407  .00004490  00000-0  39085-4 0  9990,2 56497  69.9990 149.2231 0003219 279.8478  80.2354 15.69929782 25486,6737.235,91.724,361.269,356.931,0.0
56497.0,STARLINK-5527,PAYLOAD,2023-10-19 23:58:44,15.69918024,0.0002951,69.9988,149.0438,279.8249,80.2614,1.2328e-05,1.27e-05,0.0,0 STARLINK-5527,1 56497U 23064BB  23292.99912267  .00001270  00000-0  12328-4 0  9999,2 56497  69.9988 149.0438 0002951 279.8249  80.2614 15.69918024 25844,6737.269,91.725,361.122,357.145,0.0
56497.0,STARLINK-5527,PAYLOAD,2023-10-20 13:44:29,15.69939482,0.0002935,69.9993,147.4303,279.3727,80.7137,-9.024e-05,-0.00011055,0.0,0 STARLINK-5527,1 56497U 23064BB  23293.57256447 -.00011055  00000-0 -90240-4 0  9998,2 56497  69.9993 147.4303 0002935 279.3727  80.7137 15.69939482 25588,6737.207,91.723,361.05,357.095,0.0
56497.0,STARLINK-5527,PAYLOAD,2023-10-21 00:26:45,15.69928447,0.0002933,70.0001,146.1768,276.6273,83.4588,5.1725e-05,6.012e-05,0.0,0 STARLINK-5527,1 56497U 23064BB  23294.01858345  .00006012  00000-0  51725-4 0  9993,2 56497  70.0001 146.1768 0002933 276.6273  83.4588 15.69928447 25653,6737.239,91.724,361.08,357.128,0.0
56497.0,STARLINK-5527,PAYLOAD,2023-10-21 21:51:16,15.69939889,0.0003371,69.9998,143.6684,275.0091,85.072,6.0435e-05,7.065e-05,0.0,0 STARLINK-5527,1 56497U 23064BB  23294.91061053  .00007065  00000-0  60435-4 0  9991,2 56497  69.9998 143.6684 0003371 275.0091  85.0720 15.69939889 25795,6737.206,91.723,361.342,356.8,0.0
56497.0,STARLINK-5527,PAYLOAD,2023-10-22 07:01:51,15.69823215,0.0002616,69.9997,142.5939,294.1798,65.9124,-0.00029186,-0.00035009,0.0,0 STARLINK-5527,1 56497U 23064BB  23295.29295492 -.00035009  00000-0 -29186-3 0  9997,2 56497  69.9997 142.5939 0002616 294.1798  65.9124 15.69823215 26209,6737.54,91.73,361.167,357.642,0.0
56497.0,STARLINK-5527,PAYLOAD,2023-10-22 17:44:30,15.69146746,0.0003009,70.0004,141.3415,259.9431,100.1425,-0.0023151,-0.00261538,0.0,0 STARLINK-5527,1 56497U 23064BB  23295.73924336 -.00261538  00000-0 -23151-2 0  9995,2 56497  70.0004 141.3415 0003009 259.9431 100.1425 15.69146746 26277,6739.476,91.77,363.369,359.313,0.0
56497.0,STARLINK-5527,PAYLOAD,2023-10-22 19:16:21,15.69004332,0.0002866,70.0006,141.1626,262.5551,97.5319,-0.002709,-0.00302726,0.0,0 STARLINK-5527,1 56497U 23064BB  23295.80302260 -.00302726  00000-0 -27090-2 0  9990,2 56497  70.0006 141.1626 0002866 262.5551  97.5319 15.69004332 25931,6739.884,91.778,363.681,359.817,0.0
56497.0,STARLINK-5527,PAYLOAD,2023-10-23 06:00:00,15.67659596,0.0003639,69.9992,139.9084,270.8233,92.0844,-0.0094577,-0.00942499,0.0,0 STARLINK-5527,1 56497U 23064BB  23296.25001157 -.00942499  00000-0 -94577-2 0  9992,2 56497  69.9992 139.9084 0003639 270.8233  92.0844 15.67659596 26359,6743.738,91.857,368.057,363.149,0.0
56497.0,STARLINK-5527,PAYLOAD,2023-10-23 22:00:00,15.66333436,0.0003429,69.9996,138.042,273.1593,249.3952,-0.0094365,-0.00895303,0.0,0 STARLINK-5527,1 56497U 23064BB  23296.91667824 -.00895303  00000-0 -94365-2 0  9990,2 56497  69.9996 138.0420 0003429 273.1593 249.3952 15.66333436 26469,6747.544,91.934,371.722,367.095,0.0
56497.0,STARLINK-5527,PAYLOAD,2023-10-24 14:00:01,15.65050588,0.0003625,69.9995,136.1797,266.0011,53.0506,-0.010199,-0.00917024,0.0,0 STARLINK-5527,1 56497U 23064BB  23297.58334491 -.00917024  00000-0 -10199-1 0  9992,2 56497  69.9995 136.1797 0003625 266.0011  53.0506 15.65050588 26567,6751.23,92.01,375.543,370.648,0.0
56497.0,STARLINK-5527,PAYLOAD,2023-10-24 16:00:01,15.64901075,0.000358,69.9993,135.9469,269.4454,159.0144,-0.010608,-0.00945304,0.0,0 STARLINK-5527,1 56497U 23064BB  23297.66668981 -.00945304  00000-0 -10608-1 0  9992,2 56497  69.9993 135.9469 0003580 269.4454 159.0144 15.64901075  5899,6751.66,92.019,375.942,371.108,0.0
56497.0,STARLINK-5527,PAYLOAD,2023-10-25 14:00:01,15.6308874,0.0003384,69.999,133.3922,266.773,281.1787,-0.010874,-0.00905528,0.0,0 STARLINK-5527,1 56497U 23064BB  23298.58334491 -.00905528  00000-0 -10874-1 0  9999,2 56497  69.9990 133.3922 0003384 266.7730 281.1787 15.63088740  6032,6756.878,92.125,381.03,376.457,0.0
56497.0,STARLINK-5527,PAYLOAD,2023-10-26 06:00:00,15.61779079,0.0003503,69.9984,131.5382,269.4775,67.1757,-0.011788,-0.0093024,0.0,0 STARLINK-5527,1 56497U 23064BB  23299.25001157 -.00930240  00000-0 -11788-1 0  9998,2 56497  69.9984 131.5382 0003503 269.4775  67.1757 15.61779079 26825,6760.655,92.203,384.888,380.152,0.0
56497.0,STARLINK-5527,PAYLOAD,2023-10-26 14:00:01,15.61141169,0.0003526,69.9984,130.6128,269.3835,140.4249,-0.011967,-0.00922074,0.0,0 STARLINK-5527,1 56497U 23064BB  23299.58334491 -.00922074  00000-0 -11967-1 0  9999,2 56497  69.9984 130.6128 0003526 269.3835 140.4249 15.61141169  5870,6762.497,92.24,386.746,381.977,0.0
56497.0,STARLINK-5527,PAYLOAD,2023-10-26 16:00:00,15.60990889,0.0003416,69.9983,130.3816,270.1467,247.8322,-0.012454,-0.00951065,0.0,0 STARLINK-5527,1 56497U 23064BB  23299.66667824 -.00951065  00000-0 -12454-1 0  9991,2 56497  69.9983 130.3816 0003416 270.1467 247.8322 15.60990889 26898,6762.931,92.249,387.106,382.485,0.0
56497.0,STARLINK-5527,PAYLOAD,2023-10-30 05:38:40,15.54980543,0.0003387,69.9981,120.5319,265.8729,94.2072,-0.0072933,-0.00463421,0.0,0 STARLINK-5527,1 56497U 23064BB  23303.23518869 -.00463421  00000-0 -72933-2 0  9997,2 56497  69.9981 120.5319 0003387 265.8729  94.2072 15.54980543 27441,6780.346,92.606,404.508,399.915,0.0
56497.0,STARLINK-5527,PAYLOAD,2023-10-30 22:00:00,15.52624215,0.00034,69.9982,118.6627,277.643,292.2175,-0.015513,-0.00873494,0.0,0 STARLINK-5527,1 56497U 23064BB  23303.91667824 -.00873494  00000-0 -15513-1 0  9993,2 56497  69.9982 118.6627 0003400 277.6430 292.2175 15.52624215 27553,6787.205,92.746,411.377,406.762,0.0
56497.0,STARLINK-5527,PAYLOAD,2023-10-31 14:00:01,15.51364046,0.0003576,69.9983,116.8381,272.6753,60.8221,-0.017564,-0.00951738,0.0,0 STARLINK-5527,1 56497U 23064BB  23304.58334491 -.00951738  00000-0 -17564-1 0  9994,2 56497  69.9983 116.8381 0003576 272.6753  60.8221 15.51364046 27652,6790.88,92.822,415.173,410.316,0.0
